CSS (TIANHE)            
1 48274U 21035A   23263.51651579  .00025620  00000+0  28057-3 0  9990
2 48274  41.4737 295.9428 0008012  64.1519 296.0146 15.62643142136731
